YAOGAN-35 D             
1 52907U 22068A   22203.84512571  .00007581  00000+0  31532-3 0  9990
2 52907  34.9972  95.1255 0005353 189.0112 253.4067 15.23049298  4536
YAOGAN-35 E             
1 52908U 22068B   22202.27716897 -.00000822  00000+0 -32650-4 0  9990
2 52908  34.9993 104.9335 0009495 211.7360 277.4011 15.22886652  4264
YAOGAN-35 F             
1 52909U 22068C   22203.84545027  .00005185  00000+0  21604-3 0  9991
2 52909  34.9958  95.1281 0007738 178.1313 264.4508 15.23064858  4544
CZ-2D R/B               
1 52910U 22068D   22203.80550297  .00028407  00000+0  10875-2 0  9993
2 52910  34.9946  95.0135 0008932 191.1602 168.8916 15.25583849  4507
CZ-2D DEB               
1 52911U 22068E   22203.73731767  .00021571  00000+0  83045-3 0  9994
2 52911  34.9958  95.4054 0008501 196.8942 163.1492 15.25446292  4491
GAOFEN 12-3             
1 52912U 22069A   22203.90372883  .00000881  00000+0  12269-3 0  9996
2 52912  97.9833  91.4475 0001628 101.5068 258.6324 14.80252002  3746
CZ-4C R/B               
1 52913U 22069B   22203.19728755  .00002092  00000+0  13502-3 0  9998
2 52913  97.9696  91.7227 0072257 323.2123  36.4157 15.07373513  3694
CAPSTONE                
1 52914U 22070A   22184.14236111 -.00000375  00000+0  00000+0 0  9992
2 52914  39.0806 321.8334 8405410 344.4990 285.0037  1.02266752   396
LUNAR PHOTON            
1 52916U 22070C   22184.14236111 -.00000375  00000+0  00000+0 0  9994
2 52916  39.0806 321.8334 8405410 344.4990 285.0037  1.02266752   398
NACHOS-1                
1 52917U 22015D   22203.89338270  .00037603  00000+0  54126-3 0  9992
2 52917  51.6419 158.8640 0007739  45.9706 314.1921 15.55638776  3750
SES-22                  
1 52933U 22071A   22202.98930458  .00000114  00000+0  00000+0 0  9992
2 52933   0.0561 264.2187 0000696 309.5923 300.0639  1.00272647   255
FALCON 9 R/B            
1 52934U 22071B   22203.33302016  .00000896  00000+0  84069-3 0  9994
2 52934  16.6307  58.0795 7250135 195.3842 117.4704  2.28789407   503
DS-EO                   
1 52935U 22072A   22203.78388295  .00001039  00000+0  25490-4 0  9992
2 52935   9.9982 273.6776 0007064 281.8637  78.0783 14.99677586  3326
2022-072B               
1 52936U 22072B   22203.84555856  .00009411  00000+0  67584-3 0  9990
2 52936   9.9913 273.1415 0007453 283.6132  76.3330 15.00150881  3346
NEUSAR                  
1 52937U 22072C   22203.64191406  .00005087  00000+0  33777-3 0  9998
2 52937   9.9876 274.5620 0008880 286.5586  73.3656 15.00344070  3330
2022-072D               
1 52938U 22072D   22195.99456019  .00033000  00000+0  20836-2 0  9998
2 52938   9.9126 329.6942 0027615  38.5421 265.9938 15.06607618  2188
2022-072E               
1 52939U 22072E   22203.79490127  .00003903  00000+0  21974-3 0  9999
2 52939   9.9519 272.5682 0036496 273.8803  85.7221 15.03451552  3362
WFOV (USA 332)          
1 52940U 22073A   22204.12132520 -.00000201  00000+0  00000+0 0  9992
2 52940   0.0515 136.3724 0012031 145.9406  45.9323  0.98503732    86
RECURVE                 
1 52944U 22074A   22203.78990896  .00008892  00000+0  37725-3 0  9997
2 52944  44.9985   6.5308 0003019 337.1087  22.9660 15.23487603  3129
2022-074B               
1 52945U 22074B   22203.72283959  .00009403  00000+0  39698-3 0  9997
2 52945  44.9924   6.8410 0003963 349.2684  10.8160 15.23593796  3116
2022-074C               
1 52946U 22074C   22203.89952828  .00011995  00000+0  34453-3 0  9997
2 52946  44.9945   3.9621 0047948 326.7957  32.9924 15.34818691  3160
SLINGSHOT 1             
1 52947U 22074D   22203.84721339  .00009684  00000+0  40219-3 0  9993
2 52947  44.9875   6.1021 0004400 310.2822  49.7674 15.24116619  3132
2022-074E               
1 52948U 22074E   22203.84113605  .00008725  00000+0  35906-3 0  9997
2 52948  44.9816   6.0299 0006387 311.9948  48.0393 15.24532606  3135
2022-074F               
1 52949U 22074F   22203.85107365  .00015353  00000+0  63394-3 0  9992
2 52949  44.9915   6.1177 0004481 339.8801  20.1904 15.23926999  3132
CTIM                    
1 52950U 22074G   22203.85146690  .00016162  00000+0  66699-3 0  9998
2 52950  45.0005   6.1307 0003834 332.6130  27.4551 15.23911343  3133
2022-074H               
1 52951U 22074H   22203.91785780  .00003913  00000+0  17164-3 0  9998
2 52951  44.9896   5.7693 0004934 345.7270  14.3471 15.23701109  3149
DUMMY CUBESAT           
1 52983U 22065H   22203.84231875  .00000314  00000+0  77947-4 0  9994
2 52983  98.0216 354.0163 0008455 143.1228 217.0554 14.57993382  2276
COSMOS 2557 [GLONASS-K] 
1 52984U 22075A   22202.65000000 -.00000070  00000+0  10000-3 0  9994
2 52984  64.8130   4.3160 0007946 285.2840 147.7410  2.13098511   308
FREGAT R/B              
1 52985U 22075B   22202.82039066 -.00000072  00000+0  00000+0 0  9995
2 52985  64.8360   4.3548 0078876 121.0506 239.7395  2.08817454   303
STARLINK-4260           
1 52986U 22076A   22203.91667824 -.00132424  00000+0 -94999-3 0  9999
2 52986  53.2195 303.5336 0001644  31.5471 124.0712 15.73297463  2912
STARLINK-4259           
1 52987U 22076B   22203.91667824 -.00014709  00000+0 -10031-3 0  9990
2 52987  53.2193 303.5358 0001534  35.9055 118.4734 15.73258009  2913
STARLINK-4291           
1 52988U 22076C   22204.16667824 -.00049050  00000+0 -34630-3 0  9997
2 52988  53.2196 302.2927 0001574  41.0803  92.4619 15.73253083  2952
STARLINK-4293           
1 52989U 22076D   22203.91667824 -.00035400  00000+0 -24783-3 0  9992
2 52989  53.2191 303.5349 0001862  39.1011 115.7334 15.73294983  1304
STARLINK-4286           
1 52990U 22076E   22203.91667824 -.00092455  00000+0 -65971-3 0  9991
2 52990  53.2195 303.5325 0001803  31.1083 125.1554 15.73264412  2911
STARLINK-4285           
1 52991U 22076F   22203.91667824 -.00082358  00000+0 -58663-3 0  9993
2 52991  53.2191 303.5300 0001796  36.5488 120.9202 15.73258135  2918
STARLINK-4269           
1 52992U 22076G   22204.16667824 -.00030684  00000+0 -21498-3 0  9993
2 52992  53.2193 302.2893 0001429  40.4515  94.3713 15.73201812  2957
STARLINK-4264           
1 52993U 22076H   22203.91667824 -.00131938  00000+0 -94732-3 0  9991
2 52993  53.2182 303.5255 0001735  39.9545 118.5678 15.73275272  2914
STARLINK-4256           
1 52994U 22076J   22203.91667824 -.00088674  00000+0 -63263-3 0  9995
2 52994  53.2194 303.5263 0001765  37.7842 121.4927 15.73251008  1309
STARLINK-4296           
1 52995U 22076K   22204.16667824 -.00046830  00000+0 -33066-3 0  9990
2 52995  53.2182 302.2892 0001474  47.2601  89.9384 15.73230565  2959
STARLINK-4295           
1 52996U 22076L   22203.91667824 -.00157096  00000+0 -11320-2 0  9998
2 52996  53.2193 303.5246 0001758  37.0204 122.8868 15.73278591  1303
STARLINK-4301           
1 52997U 22076M   22203.91667824 -.00275243  00000+0 -20101-2 0  9991
2 52997  53.2184 303.5177 0001661  42.1838 120.5488 15.73330163  2915
STARLINK-4254           
1 52998U 22076N   22203.91667824 -.00078942  00000+0 -56069-3 0  9992
2 52998  53.2190 303.5219 0001718  33.8594 126.9902 15.73308115  1304
STARLINK-4217           
1 52999U 22076P   22203.91667824 -.00008933  00000+0 -59305-4 0  9993
2 52999  53.2194 303.5177 0001674  38.4975 125.5415 15.73193995  2917
STARLINK-4194           
1 53000U 22076Q   22203.91667824 -.00084884  00000+0 -60528-3 0  9994
2 53000  53.2190 303.5200 0001723  32.1264 129.5578 15.73245566  2917
STARLINK-4190           
1 53001U 22076R   22203.91667824 -.00088268  00000+0 -62938-3 0  9992
2 53001  53.2192 303.5160 0001584  37.4662 127.1719 15.73262950  1309
STARLINK-4121           
1 53002U 22076S   22203.91667824  .00013751  00000+0  10224-3 0  9997
2 53002  53.2193 303.5204 0001551  29.5579 132.6884 15.73199230  2915
STARLINK-4255           
1 53003U 22076T   22204.16667824 -.00026276  00000+0 -18270-3 0  9993
2 53003  53.2192 302.2755 0001667  36.8603 105.4438 15.73285322  2954
STARLINK-4253           
1 53004U 22076U   22203.91667824 -.00096927  00000+0 -69118-3 0  9993
2 53004  53.2192 303.5177 0001740  33.2993 130.0410 15.73298941  1305
STARLINK-4288           
1 53005U 22076V   22203.91667824 -.00101344  00000+0 -72474-3 0  9993
2 53005  53.2192 303.5126 0001646  34.9155 131.5524 15.73251647  2915
STARLINK-4290           
1 53006U 22076W   22203.91667824 -.00151003  00000+0 -10847-2 0  9996
2 53006  53.2185 303.5130 0001810  36.9986 128.0710 15.73330687  1302
STARLINK-4215           
1 53007U 22076X   22203.91667824 -.00138751  00000+0 -99815-3 0  9995
2 53007  53.2184 303.5072 0001609  26.4949 141.6693 15.73255235  1302
STARLINK-4275           
1 53008U 22076Y   22204.16667824  .00007461  00000+0  57567-4 0  9994
2 53008  53.2193 302.2732 0001549  40.5273 103.2240 15.73184605  2958
STARLINK-4277           
1 53009U 22076Z   22203.91667824 -.00091869  00000+0 -65464-3 0  9998
2 53009  53.2182 303.5028 0001646  38.0189 131.7688 15.73293921  2915
STARLINK-4263           
1 53010U 22076AA  22203.91667824 -.00084043  00000+0 -59799-3 0  9990
2 53010  53.2190 303.5101 0001773  38.8613 128.5664 15.73291530  1303
STARLINK-4265           
1 53011U 22076AB  22203.91667824 -.00023269  00000+0 -16164-3 0  9993
2 53011  53.2193 303.5046 0001625  29.5920 141.0052 15.73226001  1301
STARLINK-4271           
1 53012U 22076AC  22203.91667824 -.00096431  00000+0 -68848-3 0  9991
2 53012  53.2191 303.5076 0001482  35.3796 133.4305 15.73269436  2913
STARLINK-4177           
1 53013U 22076AD  22203.91667824 -.00064358  00000+0 -45625-3 0  9993
2 53013  53.2189 303.5002 0001702  33.9987 138.3434 15.73269726  2910
STARLINK-4183           
1 53014U 22076AE  22203.91667824  .00008593  00000+0  65565-4 0  9997
2 53014  53.2195 303.5079 0001601  30.8180 138.5729 15.73206383  2910
STARLINK-4262           
1 53015U 22076AF  22203.91667824 -.00100394  00000+0 -71739-3 0  9991
2 53015  53.2174 303.4927 0001854  39.8826 133.5341 15.73264836  2917
